STARLINK-5747           
1 55574U 23020F   26068.19824118 -.00000564  00000+0 -26675-4 0  9995
2 55574  43.0059   7.4555 0001334 267.4979  92.5711 15.02535141168849
PICO-02A021             
1 60538U 24149BY  26068.15390193  .00008488  00000+0  64833-3 0  9999
2 60538  97.6823 147.9080 0004195   9.5557 350.5747 15.02201963 84718
